[
  {
    "OBJECT_NAME": "STARLINK-35291",
    "OBJECT_ID": "25235AB",
    "EPOCH": "2025-11-11T08:00:03.000384",
    "MEAN_MOTION": 15.49264961,
    "ECCENTRICITY": 0.0001393,
    "INCLINATION": 53.1601,
    "RA_OF_ASC_NODE": 77.1887,
    "ARG_OF_PERICENTER": 95.5823,
    "MEAN_ANOMALY": 130.8489,
    "EPHEMERIS_TYPE": 0,
    "CLASSIFICATION_TYPE": "U",
    "NORAD_CAT_ID": 66083,
    "ELEMENT_SET_NO": 999,
    "REV_AT_EPOCH": 478,
    "BSTAR": 0.0011874,
    "MEAN_MOTION_DOT": 0.00066047,
    "MEAN_MOTION_DDOT": 0.0,
    "TLE_LINE1": "1 66083U 25235AB  25315.33336806  .00066047  00000+0  11874-2 0  9993",
    "TLE_LINE2": "2 66083  53.1601  77.1887 0001393  95.5823 130.8489 15.49264961  4786",
    "COMMENT": "Grouped by shell and plane from TLE"
  },
  {
    "OBJECT_NAME": "STARLINK-35379",
    "OBJECT_ID": "25235AC",
    "EPOCH": "2025-11-11T08:00:03.000384",
    "MEAN_MOTION": 15.49288546,
    "ECCENTRICITY": 0.0001409,
    "INCLINATION": 53.1601,
    "RA_OF_ASC_NODE": 77.1842,
    "ARG_OF_PERICENTER": 67.2193,
    "MEAN_ANOMALY": 161.1286,
    "EPHEMERIS_TYPE": 0,
    "CLASSIFICATION_TYPE": "U",
    "NORAD_CAT_ID": 66084,
    "ELEMENT_SET_NO": 999,
    "REV_AT_EPOCH": 482,
    "BSTAR": 0.0,
    "MEAN_MOTION_DOT": -2.304e-05,
    "MEAN_MOTION_DDOT": 0.0,
    "TLE_LINE1": "1 66084U 25235AC  25315.33336806 -.00002304  00000+0 -33391-4 0  9992",
    "TLE_LINE2": "2 66084  53.1601  77.1842 0001409  67.2193 161.1286 15.49288546  4824",
    "COMMENT": "Grouped by shell and plane from TLE"
  },
  {
    "OBJECT_NAME": "STARLINK-35370",
    "OBJECT_ID": "25235AD",
    "EPOCH": "2025-11-11T08:00:03.000384",
    "MEAN_MOTION": 15.49301394,
    "ECCENTRICITY": 0.0001469,
    "INCLINATION": 53.16,
    "RA_OF_ASC_NODE": 77.1801,
    "ARG_OF_PERICENTER": 69.1974,
    "MEAN_ANOMALY": 161.0682,
    "EPHEMERIS_TYPE": 0,
    "CLASSIFICATION_TYPE": "U",
    "NORAD_CAT_ID": 66085,
    "ELEMENT_SET_NO": 999,
    "REV_AT_EPOCH": 478,
    "BSTAR": 0.0,
    "MEAN_MOTION_DOT": -0.00030943,
    "MEAN_MOTION_DDOT": 0.0,
    "TLE_LINE1": "1 66085U 25235AD  25315.33336806 -.00030943  00000+0 -55062-3 0  9991",
    "TLE_LINE2": "2 66085  53.1600  77.1801 0001469  69.1974 161.0682 15.49301394  4784",
    "COMMENT": "Grouped by shell and plane from TLE"
  }
]